[{"OBJECT_NAME":"STARLINK-32135","OBJECT_ID":"2024-131Y","EPOCH":"2026-03-09T23:21:53.868960","MEAN_MOTION":15.30191246,"ECCENTRICITY":0.00013264,"INCLINATION":53.1616,"RA_OF_ASC_NODE":50.994,"ARG_OF_PERICENTER":82.1119,"MEAN_ANOMALY":278.0032,"EPHEMERIS_TYPE":0,"CLASSIFICATION_TYPE":"U","NORAD_CAT_ID":60277,"ELEMENT_SET_NO":999,"REV_AT_EPOCH":9176,"BSTAR":3.5433798e-5,"MEAN_MOTION_DOT":6.9e-6,"MEAN_MOTION_DDOT":0},{"OBJECT_NAME":"KUIPER-00252","OBJECT_ID":"2025-301AA","EPOCH":"2026-03-09T22:00:01.999584","MEAN_MOTION":15.32961042,"ECCENTRICITY":0.00108625,"INCLINATION":51.8682,"RA_OF_ASC_NODE":64.6463,"ARG_OF_PERICENTER":55.9089,"MEAN_ANOMALY":330.8749,"EPHEMERIS_TYPE":0,"CLASSIFICATION_TYPE":"U","NORAD_CAT_ID":67157,"ELEMENT_SET_NO":999,"REV_AT_EPOCH":542,"BSTAR":-0.017504489,"MEAN_MOTION_DOT":-0.00529484,"MEAN_MOTION_DDOT":0}]
